OBJECT_NAME,OBJECT_ID,EPOCH,MEAN_MOTION,ECCENTRICITY,INCLINATION,RA_OF_ASC_NODE,ARG_OF_PERICENTER,MEAN_ANOMALY,EPHEMERIS_TYPE,CLASSIFICATION_TYPE,NORAD_CAT_ID,ELEMENT_SET_NO,REV_AT_EPOCH,BSTAR,MEAN_MOTION_DOT,MEAN_MOTION_DDOT
CENTISPACE-1 S3,2022-108A,2026-05-18T19:05:17.593728,14.61222480,.0008184,53.5315,176.7937,265.8335,94.1705,0,U,53757,999,19723,.51782E-4,.68E-6,0
CENTISPACE-1 S4,2022-108B,2026-05-18T19:02:16.754208,14.61896059,.0007832,53.5290,174.4587,251.3649,108.6476,0,U,53758,999,19726,.6456E-4,.135E-5,0
BLUEWALKER-3,2022-111AL,2026-05-18T19:24:35.790048,15.37877789,.0007427,53.2275,171.8528,83.6353,276.5498,0,U,53807,999,20568,.91267E-4,.3057E-4,0
YUNHAI-1 03,2022-115A,2026-05-18T12:09:07.173792,14.32696398,.0005736,98.5535,137.0315,125.6664,234.5054,0,U,53877,999,19126,.96193E-4,.218E-5,0
CENTISPACE-1 S5,2022-126A,2026-05-18T20:10:50.943360,14.62955264,.0012879,54.9997,330.3899,15.4069,344.7315,0,U,54020,999,19274,.12278E-3,.444E-5,0
CENTISPACE-1 S6,2022-126B,2026-05-18T19:40:16.254048,14.62244074,.0014712,55.0001,332.2051,14.3125,345.8283,0,U,54021,999,19270,.10062E-3,.323E-5,0
OTB-3-GAZELLE,2022-127A,2026-05-18T17:19:46.504992,14.42662684,.0011825,98.3941,130.8768,278.6523,81.3327,0,U,54023,999,19011,.3297E-4,.66E-6,0
ASO-S,2022-129A,2026-05-18T21:34:14.007072,14.52045624,.0014326,98.2752,144.3988,177.4087,182.7185,0,U,54029,999,19117,.37091E-4,.105E-5,0
HJ-2E,2022-132A,2026-05-18T21:33:35.375040,15.21832413,.0022611,97.3803,143.8140,110.6061,249.7603,0,U,54035,999,19996,.23066E-3,.5207E-4,0
COSMOS 2561,2022-137A,2026-05-18T19:29:42.928224,15.50898762,.0011619,96.9207,198.9232,128.4765,231.7532,0,U,54109,999,20179,.15579E-3,.8946E-4,0
GONETS-M 23,2022-139A,2026-05-18T21:09:12.301632,12.42889493,.0020623,82.5092,6.5087,287.0691,72.8129,0,U,54150,999,16200,.21804E-3,.4E-6,0
GONETS-M 24,2022-139B,2026-05-18T20:30:29.937888,12.42890069,.0015952,82.5009,5.6054,298.5716,61.3758,0,U,54151,999,16200,.13468E-3,.28E-6,0
GONETS-M 25,2022-139C,2026-05-18T20:10:50.842272,12.42889208,.0019861,82.5074,6.2843,296.5020,63.4023,0,U,54152,999,16200,.13521E-3,.28E-6,0
SKIF-D,2022-139D,2026-05-16T06:42:18.173664,5.00437957,.0007411,89.9552,96.6772,213.4947,146.4892,0,U,54153,999,6251,0,.18E-6,0
MATS,2022-147A,2026-05-18T11:12:52.312032,15.05155630,.0010892,97.6836,140.1981,305.8685,54.1529,0,U,54227,999,19329,.1462E-3,.2022E-4,0
JILIN-1 GAOFEN 03D54,2022-155D,2026-05-18T18:25:15.519936,15.84301540,.0001353,97.6104,288.3166,165.0738,195.0572,0,U,54254,999,19562,.57454E-3,.131211E-2,0
EOS-6 (OCEANSAT-3),2022-158A,2026-05-18T20:14:37.099680,14.47021802,.0002155,98.3517,237.4297,80.0993,280.0443,0,U,54361,999,18359,.60374E-4,.176E-5,0
DONGPO 09,2022-167D,2026-05-18T21:33:45.241056,15.35629922,.000196,97.6880,308.6182,192.8579,167.2614,0,U,54685,999,19095,.21234E-3,.7269E-4,0
DONGPO 08,2022-167E,2026-05-18T21:26:43.870848,15.33019093,.0006807,97.6842,305.9283,269.3862,90.6599,0,U,54686,999,19083,.2096E-3,.6605E-4,0
2022-167F,2022-167F,2026-05-18T10:41:44.294784,15.82106453,.000311,97.6166,322.9381,171.5645,188.5676,0,U,54687,999,19211,.15004E-3,.30459E-3,0
DONGPO 10,2022-167H,2026-05-18T20:24:17.466624,15.33803012,.000463,97.6925,307.7656,202.7067,157.3971,0,U,54689,999,19086,.20691E-3,.6681E-4,0
JILIN-1 GAOFEN 03D48,2022-167P,2026-05-18T20:41:39.188832,15.34539641,.0005897,97.6859,307.1470,210.2081,149.8822,0,U,54695,999,19089,.21241E-3,.7025E-4,0
STAR VIBE,2023-001A,2026-05-18T20:12:25.691328,15.41746784,.0005239,97.3183,203.2037,202.5870,157.5147,0,U,55009,999,18770,.22394E-3,.9384E-4,0
BRO-8,2023-001C,2026-05-18T19:57:31.607712,15.47161200,.0005591,97.3228,203.6322,209.8265,150.2667,0,U,55011,999,18766,.38465E-3,.19468E-3,0
CONNECTA T1.2,2023-001D,2026-05-18T20:28:33.373056,15.48443746,.0006506,97.3287,209.0701,185.6673,174.4505,0,U,55012,999,18800,.51007E-3,.27052E-3,0
BIRKELAND,2023-001G,2026-05-18T20:06:19.473696,15.39515184,.0006406,97.3355,206.7428,195.6489,164.4560,0,U,55015,999,18783,.15495E-3,.6003E-4,0
ION SCV-008,2023-001AU,2026-05-18T12:20:26.988000,15.28174498,.0016445,97.5698,234.3479,115.9509,244.3426,0,U,55051,999,18680,.15686E-3,.4245E-4,0
ION SCV-007,2023-001BD,2026-05-18T03:06:49.256064,14.77523044,.0013735,97.9022,201.7386,75.2347,285.0385,0,U,55060,999,18181,.45831E-4,.276E-5,0
HUYGENS,2023-001CN,2026-05-18T20:06:26.462592,15.39514889,.0009832,97.3260,206.0107,178.5831,181.5445,0,U,55093,999,18785,.15983E-3,.6201E-4,0
SHARJAHSAT-1,2023-001CZ,2026-05-18T20:08:02.908320,15.47906039,.0005755,97.3184,207.2218,191.7814,168.3303,0,U,55104,999,18795,.23471E-3,.12144E-3,0
