CENTISPACE-1 S3         
1 53757U 22108A   26138.79534252  .00000068  00000+0  51782-4 0  9997
2 53757  53.5315 176.7937 0008184 265.8335  94.1705 14.61222480197232
CENTISPACE-1 S4         
1 53758U 22108B   26138.79324947  .00000135  00000+0  64560-4 0  9999
2 53758  53.5290 174.4587 0007832 251.3649 108.6476 14.61896059197266
BLUEWALKER-3            
1 53807U 22111AL  26138.80874757  .00003057  00000+0  91267-4 0  9999
2 53807  53.2275 171.8528 0007427  83.6353 276.5498 15.37877789205683
YUNHAI-1 03             
1 53877U 22115A   26138.50633303  .00000218  00000+0  96193-4 0  9996
2 53877  98.5535 137.0315 0005736 125.6664 234.5054 14.32696398191261
CENTISPACE-1 S5         
1 54020U 22126A   26138.84086740  .00000444  00000+0  12278-3 0  9995
2 54020  54.9997 330.3899 0012879  15.4069 344.7315 14.62955264192747
CENTISPACE-1 S6         
1 54021U 22126B   26138.81963257  .00000323  00000+0  10062-3 0  9995
2 54021  55.0001 332.2051 0014712  14.3125 345.8283 14.62244074192708
OTB-3-GAZELLE           
1 54023U 22127A   26138.72206603  .00000066  00000+0  32970-4 0  9990
2 54023  98.3941 130.8768 0011825 278.6523  81.3327 14.42662684190112
ASO-S                   
1 54029U 22129A   26138.89877323  .00000105  00000+0  37091-4 0  9992
2 54029  98.2752 144.3988 0014326 177.4087 182.7185 14.52045624191176
HJ-2E                   
1 54035U 22132A   26138.89832610  .00005207  00000+0  23066-3 0  9997
2 54035  97.3803 143.8140 0022611 110.6061 249.7603 15.21832413199962
COSMOS 2561             
1 54109U 22137A   26138.81230241  .00008946  00000+0  15579-3 0  9991
2 54109  96.9207 198.9232 0011619 128.4765 231.7532 15.50898762201792
GONETS-M 23             
1 54150U 22139A   26138.88139238  .00000040  00000+0  21804-3 0  9995
2 54150  82.5092   6.5087 0020623 287.0691  72.8129 12.42889493162003
GONETS-M 24             
1 54151U 22139B   26138.85451317  .00000028  00000+0  13468-3 0  9991
2 54151  82.5009   5.6054 0015952 298.5716  61.3758 12.42890069162002
GONETS-M 25             
1 54152U 22139C   26138.84086623  .00000028  00000+0  13521-3 0  9995
2 54152  82.5074   6.2843 0019861 296.5020  63.4023 12.42889208162008
SKIF-D                  
1 54153U 22139D   26136.27937701  .00000018  00000+0  00000+0 0  9996
2 54153  89.9552  96.6772 0007411 213.4947 146.4892  5.00437957 62516
MATS                    
1 54227U 22147A   26138.46727213  .00002022  00000+0  14620-3 0  9999
2 54227  97.6836 140.1981 0010892 305.8685  54.1529 15.05155630193291
JILIN-1 GAOFEN 03D54    
1 54254U 22155D   26138.76754074  .00131211  00000+0  57454-3 0  9991
2 54254  97.6104 288.3166 0001353 165.0738 195.0572 15.84301540195628
EOS-6 (OCEANSAT-3)      
1 54361U 22158A   26138.84348495  .00000176  00000+0  60374-4 0  9999
2 54361  98.3517 237.4297 0002155  80.0993 280.0443 14.47021802183596
DONGPO 09               
1 54685U 22167D   26138.89844029  .00007269  00000+0  21234-3 0  9998
2 54685  97.6880 308.6182 0001960 192.8579 167.2614 15.35629922190958
DONGPO 08               
1 54686U 22167E   26138.89356332  .00006605  00000+0  20960-3 0  9992
2 54686  97.6842 305.9283 0006807 269.3862  90.6599 15.33019093190837
2022-167F               
1 54687U 22167F   26138.44565156  .00030459  00000+0  15004-3 0  9997
2 54687  97.6166 322.9381 0003110 171.5645 188.5676 15.82106453192119
DONGPO 10               
1 54689U 22167H   26138.85020216  .00006681  00000+0  20691-3 0  9995
2 54689  97.6925 307.7656 0004630 202.7067 157.3971 15.33803012190866
JILIN-1 GAOFEN 03D48    
1 54695U 22167P   26138.86225913  .00007025  00000+0  21241-3 0  9999
2 54695  97.6859 307.1470 0005897 210.2081 149.8822 15.34539641190892
STAR VIBE               
1 55009U 23001A   26138.84196402  .00009384  00000+0  22394-3 0  9995
2 55009  97.3183 203.2037 0005239 202.5870 157.5147 15.41746784187702
BRO-8                   
1 55011U 23001C   26138.83161583  .00019468  00000+0  38465-3 0  9999
2 55011  97.3228 203.6322 0005591 209.8265 150.2667 15.47161200187667
CONNECTA T1.2           
1 55012U 23001D   26138.85316404  .00027052  00000+0  51007-3 0  9991
2 55012  97.3287 209.0701 0006506 185.6673 174.4505 15.48443746188002
BIRKELAND               
1 55015U 23001G   26138.83772539  .00006003  00000+0  15495-3 0  9991
2 55015  97.3355 206.7428 0006406 195.6489 164.4560 15.39515184187832
ION SCV-008             
1 55051U 23001AU  26138.51420125  .00004245  00000+0  15686-3 0  9995
2 55051  97.5698 234.3479 0016445 115.9509 244.3426 15.28174498186801
ION SCV-007             
1 55060U 23001BD  26138.12973676  .00000276  00000+0  45831-4 0  9992
2 55060  97.9022 201.7386 0013735  75.2347 285.0385 14.77523044181818
HUYGENS                 
1 55093U 23001CN  26138.83780628  .00006201  00000+0  15983-3 0  9997
2 55093  97.3260 206.0107 0009832 178.5831 181.5445 15.39514889187852
SHARJAHSAT-1            
1 55104U 23001CZ  26138.83892255  .00012144  00000+0  23471-3 0  9994
2 55104  97.3184 207.2218 0005755 191.7814 168.3303 15.47906039187952
